SatCatId,ObjectName,LaunchYear,OrbitalPeriod,LaunchMass,StatusCode,Inclination,Status,UcsData,OrbitClassEstimated,LaunchSiteCountry,Owner,UseType,Purpose,LaunchVehicleClass,TLE1,TLE2,MeanMotion,Eccentricity,OrbitClass
49145,STARLINK-3119,2021,96.11,260.0,+,70.0,Active,1,LEO,USA,USA,Commercial,Communications,Falcon,1 49145U 21082R   23276.54302410 -.00000098  00000+0 -43195-6 0  9991,2 49145  69.9998 333.7786 0002923 267.4016  92.6808 14.98330000113921,14.9833,0.0002923,LEO
49146,STARLINK-3116,2021,96.11,260.0,+,70.0,Active,1,LEO,USA,USA,Commercial,Communications,Falcon,1 49146U 21082S   23276.49735332  .00003119  00000+0  26902-3 0  9998,2 49146  70.0015 353.9115 0003162 272.2112  87.8685 14.98341092114598,14.98341092,0.0003162,LEO
49147,STARLINK-3071,2021,96.11,260.0,+,70.0,Active,1,LEO,USA,USA,Commercial,Communications,Falcon,1 49147U 21082T   23275.88794291 -.00001422  00000+0 -11141-3 0  9996,2 49147  70.0004 335.4473 0002927 271.1376  88.9448 14.98332899115008,14.98332899,0.0002927,LEO
49148,STARLINK-3048,2021,96.11,260.0,+,70.0,Active,1,LEO,USA,USA,Commercial,Communications,Falcon,1 49148U 21082U   23276.48901403 -.00000360  00000+0 -22410-4 0  9991,2 49148  70.0006 353.9119 0002838 266.4588  93.6247 14.98329670114558,14.9832967,0.0002838,LEO
49149,STARLINK-3053,2021,96.11,260.0,+,70.0,Active,1,LEO,USA,USA,Commercial,Communications,Falcon,1 49149U 21082V   23276.52262260 -.00000381  00000+0 -24131-4 0  9993,2 49149  70.0016  13.8375 0002773 270.1560  89.9281 14.98335328114144,14.98335328,0.0002773,LEO
49150,STARLINK-3104,2021,96.11,260.0,+,70.0,Active,1,LEO,USA,USA,Commercial,Communications,Falcon,1 49150U 21082W   23276.45169326  .00000056  00000+0  12467-4 0  9992,2 49150  70.0008  14.0191 0002909 268.3932  91.6894 14.98332995114135,14.98332995,0.0002909,LEO
49151,STARLINK-3102,2021,96.11,260.0,+,70.0,Active,1,LEO,USA,USA,Commercial,Communications,Falcon,1 49151U 21082X   23276.53467456  .00000423  00000+0  43244-4 0  9992,2 49151  69.9992 333.8065 0003221 271.5074  88.5716 14.98335643115130,14.98335643,0.0003221,LEO
49152,STARLINK-3081,2021,96.11,260.0,+,70.0,Active,1,LEO,USA,USA,Commercial,Communications,Falcon,1 49152U 21082Y   23276.50964559  .00013249  00000+0  11156-2 0  9991,2 49152  70.0007 333.8624 0003009 264.4039  95.6777 14.98345613115053,14.98345613,0.0003009,LEO
49153,STARLINK-3072,2021,96.11,260.0,+,70.0,Active,1,LEO,USA,USA,Commercial,Communications,Falcon,1 49153U 21082Z   23276.52633327 -.00002370  00000+0 -19092-3 0  9993,2 49153  69.9986 333.8327 0003251 273.9525  86.1262 14.98322011113915,14.98322011,0.0003251,LEO
49154,STARLINK-3068,2021,96.11,260.0,+,70.0,Active,1,LEO,USA,USA,Commercial,Communications,Falcon,1 49154U 21082AA  23275.95076004 -.00001812  00000+0 -14408-3 0  9999,2 49154  70.0003 355.2737 0003105 268.6919  91.3884 14.98333239114427,14.98333239,0.0003105,LEO
49155,STARLINK-3060,2021,96.11,260.0,+,70.0,Active,1,LEO,USA,USA,Commercial,Communications,Falcon,1 49155U 21082AB  23276.52215754  .00002051  00000+0  17963-3 0  9994,2 49155  69.9988 333.8481 0003225 268.6968  91.3822 14.98335855115005,14.98335855,0.0003225,LEO
49156,STARLINK-3085,2021,96.11,260.0,+,70.0,Active,1,LEO,USA,USA,Commercial,Communications,Falcon,1 49156U 21082AC  23276.50128021 -.00010614  00000+0 -88168-3 0  9994,2 49156  69.9992 333.8899 0003561 271.2427  88.8324 14.98389118115006,14.98389118,0.0003561,LEO
49157,STARLINK-3051,2021,96.11,260.0,+,70.0,Active,1,LEO,USA,USA,Commercial,Communications,Falcon,1 49157U 21082AD  23276.21362410  .00000812  00000+0  75842-4 0  9998,2 49157  70.0014 354.6154 0002821 268.3817  91.7019 14.98333003114485,14.98333003,0.0002821,LEO
49158,STARLINK-3083,2021,95.89,260.0,+,70.0,Active,1,LEO,USA,USA,Commercial,Communications,Falcon,1 49158U 21082AE  23275.66188675  .00035664  00000+0  27282-2 0  9992,2 49158  70.0000 355.0768 0001320 283.7272  76.3742 15.01741393114422,15.01741393,0.000132,LEO
49159,STARLINK-3056,2021,96.11,260.0,+,70.0,Active,1,LEO,USA,USA,Commercial,Communications,Falcon,1 49159U 21082AF  23276.44752245 -.00000668  00000+0 -48208-4 0  9991,2 49159  70.0004  14.0340 0003088 271.7386  88.3419 14.98332139114020,14.98332139,0.0003088,LEO
49160,STARLINK-3095,2021,96.11,260.0,+,70.0,Active,1,LEO,USA,USA,Commercial,Communications,Falcon,1 49160U 21082AG  23276.43501673  .00002726  00000+0  23616-3 0  9999,2 49160  70.0018  14.0472 0003155 275.3907  84.6892 14.98332364114009,14.98332364,0.0003155,LEO
49161,STARLINK-3080,2021,96.11,260.0,+,70.0,Active,1,LEO,USA,USA,Commercial,Communications,Falcon,1 49161U 21082AH  23276.43917547 -.00000185  00000+0 -77227-5 0  9999,2 49161  69.9999  14.0346 0002915 270.0287  90.0538 14.98333576114005,14.98333576,0.0002915,LEO
49162,STARLINK-3082,2021,96.11,260.0,+,70.0,Active,1,LEO,USA,USA,Commercial,Communications,Falcon,1 49162U 21082AJ  23276.43083048  .00003310  00000+0  28505-3 0  9994,2 49162  70.0016  14.0630 0003419 273.9041  86.1728 14.98331131114096,14.98331131,0.0003419,LEO
49163,STARLINK-3088,2021,96.11,260.0,+,70.0,Active,1,LEO,USA,USA,Commercial,Communications,Falcon,1 49163U 21082AK  23276.20528108 -.00000204  00000+0 -93088-5 0  9992,2 49163  70.0006 354.6426 0002927 267.8018  92.2806 14.98336759114558,14.98336759,0.0002927,LEO
49164,STARLINK-3106,2021,96.11,260.0,+,70.0,Active,1,LEO,USA,USA,Commercial,Communications,Falcon,1 49164U 21082AL  23276.39723297 -.00000725  00000+0 -53025-4 0  9993,2 49164  70.0009 354.1666 0002810 271.1671  88.9166 14.98315623114588,14.98315623,0.000281,LEO
49165,STARLINK-3052,2021,96.11,260.0,+,70.0,Active,1,LEO,USA,USA,Commercial,Communications,Falcon,1 49165U 21082AM  23276.42682623 -.00000724  00000+0 -52891-4 0  9994,2 49165  69.9997  14.0767 0002901 264.7045  95.3783 14.98318321114136,14.98318321,0.0002901,LEO
49166,STARLINK-3089,2021,96.11,260.0,+,70.0,Active,1,LEO,USA,USA,Commercial,Communications,Falcon,1 49166U 21082AN  23276.20110832  .00000088  00000+0  15188-4 0  9998,2 49166  70.0005 354.6572 0002971 267.4085  92.6733 14.98336305114584,14.98336305,0.0002971,LEO
49167,STARLINK-3054,2021,96.11,260.0,+,70.0,Active,1,LEO,USA,USA,Commercial,Communications,Falcon,1 49167U 21082AP  23275.62136716  .00004265  00000+0  36503-3 0  9997,2 49167  70.0025  16.1101 0002991 270.6363  89.4453 14.98328219114007,14.98328219,0.0002991,LEO
49168,STARLINK-3101,2021,96.11,260.0,+,70.0,Active,1,LEO,USA,USA,Commercial,Communications,Falcon,1 49168U 21082AQ  23275.65033871  .00000949  00000+0  87334-4 0  9993,2 49168  70.0014 356.0319 0002970 270.7135  89.3684 14.98330611114507,14.98330611,0.000297,LEO
49169,STARLINK-3046,2021,96.11,260.0,+,70.0,Active,1,LEO,USA,USA,Commercial,Communications,Falcon,1 49169U 21082AR  23276.52655881  .00002541  00000+0  22062-3 0  9998,2 49169  70.0006 353.8435 0003271 273.3732  86.7053 14.98343218114643,14.98343218,0.0003271,LEO
49170,STARLINK-3074,2021,96.11,260.0,+,70.0,Active,1,LEO,USA,USA,Commercial,Communications,Falcon,1 49170U 21082AS  23276.53097626  .00001243  00000+0  11187-3 0  9992,2 49170  70.0030  13.8239 0002827 265.5776  94.5060 14.98348903112946,14.98348903,0.0002827,LEO
49171,STARLINK-3107,2021,96.11,260.0,+,70.0,Active,1,LEO,USA,USA,Commercial,Communications,Falcon,1 49171U 21082AT  23276.55183261  .00010081  00000+0  85136-3 0  9991,2 49171  70.0015  13.7802 0003146 264.4580  95.6220 14.98333820114103,14.9833382,0.0003146,LEO
49172,STARLINK-3091,2021,96.11,260.0,+,70.0,Active,1,LEO,USA,USA,Commercial,Communications,Falcon,1 49172U 21082AU  23276.22614204  .00000765  00000+0  71913-4 0  9999,2 49172  70.0003 354.5845 0003077 271.1421  88.9386 14.98334600113380,14.983346,0.0003077,LEO
49173,STARLINK-3045,2021,96.11,260.0,+,70.0,Active,1,LEO,USA,USA,Commercial,Communications,Falcon,1 49173U 21082AV  23276.51404171  .00000636  00000+0  61073-4 0  9995,2 49173  69.9998 353.8574 0003182 272.5014  87.5781 14.98341509113438,14.98341509,0.0003182,LEO
49174,STARLINK-3047,2021,96.02,260.0,+,70.0,Active,1,LEO,USA,USA,Commercial,Communications,Falcon,1 49174U 21082AW  23275.65143190  .00014044  00000+0  11392-2 0  9996,2 49174  70.0006 355.6014 0002302 301.3910  58.7024 14.99770063114488,14.99770063,0.0002302,LEO
49175,STARLINK-3087,2021,96.11,260.0,+,70.0,Active,1,LEO,USA,USA,Commercial,Communications,Falcon,1 49175U 21082AX  23275.94241432 -.00001677  00000+0 -13277-3 0  9992,2 49175  70.0023 355.3143 0003093 264.6609  95.4198 14.98326776113343,14.98326776,0.0003093,LEO
49176,STARLINK-3069,2021,96.11,260.0,+,70.0,Active,1,LEO,USA,USA,Commercial,Communications,Falcon,1 49176U 21082AY  23276.19670812 -.00000789  00000+0 -58341-4 0  9994,2 49176  69.9992 334.6627 0003052 273.8118  86.2692 14.98336511113878,14.98336511,0.0003052,LEO
49177,STARLINK-3103,2021,96.11,260.0,+,70.0,Active,1,LEO,USA,USA,Commercial,Communications,Falcon,1 49177U 21082AZ  23276.55136665  .00000819  00000+0  76445-4 0  9995,2 49177  69.9996 333.7780 0003226 267.0284  93.0506 14.98331846115121,14.98331846,0.0003226,LEO
49178,STARLINK-3086,2021,96.11,260.0,+,70.0,Active,1,LEO,USA,USA,Commercial,Communications,Falcon,1 49178U 21082BA  23276.44334743  .00000371  00000+0  38846-4 0  9997,2 49178  70.0019  14.0317 0003177 274.8922  85.1874 14.98329787114081,14.98329787,0.0003177,LEO
49179,STARLINK-3043,2021,96.11,260.0,+,70.0,Active,1,LEO,USA,USA,Commercial,Communications,Falcon,1 49179U 21082BB  23276.53885383 -.00000645  00000+0 -46284-4 0  9990,2 49179  69.9998 333.7938 0002809 266.9958  93.0880 14.98327813113922,14.98327813,0.0002809,LEO
49180,STARLINK-3050,2021,96.11,260.0,+,70.0,Active,1,LEO,USA,USA,Commercial,Communications,Falcon,1 49180U 21082BC  23276.52239023  .00001303  00000+0  11692-3 0  9999,2 49180  70.0011 353.8415 0003181 273.2418  86.8377 14.98335507114608,14.98335507,0.0003181,LEO
